NORAD_CAT_ID,OBJECT_NAME,OBJECT_TYPE,EPOCH,MEAN_MOTION,ECCENTRICITY,INCLINATION,RA_OF_ASC_NODE,ARG_OF_PERICENTER,MEAN_ANOMALY,BSTAR,MEAN_MOTION_DOT,MEAN_MOTION_DDOT,TLE_LINE0,TLE_LINE1,TLE_LINE2,SEMIMAJOR_AXIS,PERIOD,APOGEE,PERIGEE,DECAYED
53032.0,STARLINK-4115,PAYLOAD,2024-06-21 21:07:01,15.08843154,0.0001346,53.2186,13.4946,84.1038,276.0107,7.3058e-05,8.75e-06,0.0,0 STARLINK-4115,1 53032U 22076AY  24173.87987319  .00000875  00000-0  73058-4 0  9996,2 53032  53.2186  13.4946 0001346  84.1038 276.0107 15.08843154108512,6917.871,95.437,540.667,538.805,0.0
53032.0,STARLINK-4115,PAYLOAD,2024-06-22 13:00:52,15.08839376,0.0001266,53.2183,10.5206,86.2745,273.8392,0.00011264,1.505e-05,0.0,0 STARLINK-4115,1 53032U 22076AY  24174.54227406  .00001505  00000-0  11264-3 0  9996,2 53032  53.2183  10.5206 0001266  86.2745 273.8392 15.08839376109080,6917.882,95.438,540.623,538.871,0.0
53032.0,STARLINK-4115,PAYLOAD,2024-06-22 19:22:24,15.08843176,0.0001378,53.2186,9.3321,74.9316,285.1829,0.00011351,1.519e-05,0.0,0 STARLINK-4115,1 53032U 22076AY  24174.80723268  .00001519  00000-0  11351-3 0  9994,2 53032  53.2186   9.3321 0001378  74.9316 285.1829 15.08843176108655,6917.871,95.437,540.689,538.782,0.0
53032.0,STARLINK-4115,PAYLOAD,2024-06-23 12:51:39,15.08842017,0.0001523,53.2186,6.0617,69.0695,291.046,3.639e-05,2.91e-06,0.0,0 STARLINK-4115,1 53032U 22076AY  24175.53587560  .00000291  00000-0  36390-4 0  9995,2 53032  53.2186   6.0617 0001523  69.0695 291.0460 15.08842017108766,6917.874,95.437,540.793,538.686,0.0
53032.0,STARLINK-4115,PAYLOAD,2024-06-23 19:13:12,15.08841739,0.0001327,53.2181,4.8716,78.1245,281.9896,2.7457e-05,1.49e-06,0.0,0 STARLINK-4115,1 53032U 22076AY  24175.80083467  .00000149  00000-0  27457-4 0  9998,2 53032  53.2181   4.8716 0001327  78.1245 281.9896 15.08841739109279,6917.875,95.437,540.658,538.822,0.0
53032.0,STARLINK-4115,PAYLOAD,2024-06-24 19:03:58,15.08842741,0.000132,53.2182,0.4116,89.7236,270.3908,3.7246e-05,3.05e-06,0.0,0 STARLINK-4115,1 53032U 22076AY  24176.79443178  .00000305  00000-0  37246-4 0  9997,2 53032  53.2182   0.4116 0001320  89.7236 270.3908 15.08842741108951,6917.872,95.437,540.65,538.824,0.0
53032.0,STARLINK-4115,PAYLOAD,2024-06-25 18:54:45,15.08841167,0.0001416,53.2189,355.9501,105.6021,254.5128,5.5851e-05,6.01e-06,0.0,0 STARLINK-4115,1 53032U 22076AY  24177.78803165  .00000601  00000-0  55851-4 0  9994,2 53032  53.2189 355.9501 0001416 105.6021 254.5128 15.08841167109578,6917.877,95.437,540.721,538.762,0.0
53032.0,STARLINK-4115,PAYLOAD,2024-06-27 04:17:52,15.08839199,0.0001522,53.2192,349.7017,68.9193,291.1961,1.1338e-05,-1.08e-06,0.0,0 STARLINK-4115,1 53032U 22076AY  24179.17907748 -.00000108  00000-0  11338-4 0  9996,2 53032  53.2192 349.7017 0001522  68.9193 291.1961 15.08839199109781,6917.883,95.438,540.801,538.695,0.0
53032.0,STARLINK-4115,PAYLOAD,2024-06-27 18:36:20,15.08842436,0.0001015,53.2173,347.0243,108.2328,251.8775,-2.2628e-05,-6.48e-06,0.0,0 STARLINK-4115,1 53032U 22076AY  24179.77523614 -.00000648  00000-0 -22628-4 0  9992,2 53032  53.2173 347.0243 0001015 108.2328 251.8775 15.08842436109400,6917.873,95.437,540.44,539.036,0.0
53032.0,STARLINK-4115,PAYLOAD,2024-06-28 04:08:39,15.08837629,0.0001241,53.2186,345.24,79.4716,280.6416,4.1472e-05,3.72e-06,0.0,0 STARLINK-4115,1 53032U 22076AY  24180.17268192  .00000372  00000-0  41472-4 0  9995,2 53032  53.2186 345.2400 0001241  79.4716 280.6416 15.08837629109466,6917.888,95.438,540.611,538.894,0.0
53032.0,STARLINK-4115,PAYLOAD,2024-06-28 18:27:05,15.08857476,0.0001329,53.2176,342.5653,89.1544,270.96,0.00035297,5.337e-05,0.0,0 STARLINK-4115,1 53032U 22076AY  24180.76881848  .00005337  00000-0  35297-3 0  9992,2 53032  53.2176 342.5653 0001329  89.1544 270.9600 15.08857476110022,6917.827,95.436,540.611,538.773,0.0
53032.0,STARLINK-4115,PAYLOAD,2024-06-29 03:59:25,15.08841253,0.0001367,53.2174,340.781,87.7869,272.328,0.00019844,2.872e-05,0.0,0 STARLINK-4115,1 53032U 22076AY  24181.16627274  .00002872  00000-0  19844-3 0  9999,2 53032  53.2174 340.7810 0001367  87.7869 272.3280 15.08841253110083,6917.877,95.437,540.687,538.796,0.0
53032.0,STARLINK-4115,PAYLOAD,2024-06-29 10:20:59,15.08832427,0.0001328,53.2165,339.5955,94.1506,265.9638,0.00014462,2.014e-05,0.0,0 STARLINK-4115,1 53032U 22076AY  24181.43124145  .00002014  00000-0  14462-3 0  9997,2 53032  53.2165 339.5955 0001328  94.1506 265.9638 15.08832427110129,6917.904,95.438,540.687,538.85,0.0
53032.0,STARLINK-4115,PAYLOAD,2024-06-29 18:17:54,15.08842549,0.0001052,53.2164,338.1076,100.1634,259.9477,8.7618e-05,1.107e-05,0.0,0 STARLINK-4115,1 53032U 22076AY  24181.76243775  .00001107  00000-0  87618-4 0  9990,2 53032  53.2164 338.1076 0001052 100.1634 259.9477 15.08842549109703,6917.873,95.437,540.465,539.01,0.0
53032.0,STARLINK-4115,PAYLOAD,2024-06-30 10:11:46,15.0883864,0.0001048,53.2161,335.133,104.1678,255.9431,-5.5077e-05,-1.164e-05,0.0,0 STARLINK-4115,1 53032U 22076AY  24182.42483797 -.00001164  00000-0 -55077-4 0  9993,2 53032  53.2161 335.1330 0001048 104.1678 255.9431 15.08838640109801,6917.885,95.438,540.475,539.025,0.0
53032.0,STARLINK-4115,PAYLOAD,2024-06-30 16:33:18,15.08848241,0.0001067,53.2171,333.9448,107.9222,252.1887,-2.0742e-05,-6.18e-06,0.0,0 STARLINK-4115,1 53032U 22076AY  24182.68979517 -.00000618  00000-0 -20742-4 0  9995,2 53032  53.2171 333.9448 0001067 107.9222 252.1887 15.08848241110315,6917.855,95.437,540.458,538.982,0.0
53032.0,STARLINK-4115,PAYLOAD,2024-07-01 13:13:19,15.0883102,0.0001214,53.2155,330.0777,102.8304,257.2824,7.1441e-05,8.49e-06,0.0,0 STARLINK-4115,1 53032U 22076AY  24183.55092383  .00000849  00000-0  71441-4 0  9995,2 53032  53.2155 330.0777 0001214 102.8304 257.2824 15.08831020110447,6917.908,95.438,540.613,538.933,0.0
53032.0,STARLINK-4115,PAYLOAD,2024-07-01 14:48:42,15.08833344,0.0001369,53.2172,329.7816,92.8003,267.3146,6.9126e-05,8.12e-06,0.0,0 STARLINK-4115,1 53032U 22076AY  24183.61716331  .00000812  00000-0  69126-4 0  9995,2 53032  53.2172 329.7816 0001369  92.8003 267.3146 15.08833344109987,6917.901,95.438,540.713,538.819,0.0
53032.0,STARLINK-4115,PAYLOAD,2024-07-01 19:34:51,15.08838676,0.0001434,53.2176,328.886,122.8277,237.2854,7.7602e-05,9.47e-06,0.0,0 STARLINK-4115,1 53032U 22076AY  24183.81587914  .00000947  00000-0  77602-4 0  9997,2 53032  53.2176 328.8860 0001434 122.8277 237.2854 15.08838676110482,6917.884,95.438,540.741,538.757,0.0
53032.0,STARLINK-4115,PAYLOAD,2024-07-02 14:39:29,15.08837881,0.000123,53.216,325.3158,106.6299,253.4828,0.00011568,1.554e-05,0.0,0 STARLINK-4115,1 53032U 22076AY  24184.61076193  .00001554  00000-0  11568-3 0  9991,2 53032  53.2160 325.3158 0001230 106.6299 253.4828 15.08837881110135,6917.887,95.438,540.603,538.901,0.0
53032.0,STARLINK-4115,PAYLOAD,2024-07-02 16:14:52,15.08841082,0.0001167,53.2155,325.0193,92.6697,267.4428,0.00012652,1.726e-05,0.0,0 STARLINK-4115,1 53032U 22076AY  24184.67700018  .00001726  00000-0  12652-3 0  9993,2 53032  53.2155 325.0193 0001167  92.6697 267.4428 15.08841082110140,6917.877,95.437,540.549,538.935,0.0
53032.0,STARLINK-4115,PAYLOAD,2024-07-03 01:47:11,15.0884483,0.0001042,53.2167,323.239,83.9164,276.1947,5.9318e-05,6.57e-06,0.0,0 STARLINK-4115,1 53032U 22076AY  24185.07443880  .00000657  00000-0  59318-4 0  9992,2 53032  53.2167 323.2390 0001042  83.9164 276.1947 15.08844830110671,6917.866,95.437,540.451,539.01,0.0
53032.0,STARLINK-4115,PAYLOAD,2024-07-03 12:54:54,15.08826859,0.0001267,53.2173,321.1598,93.0446,267.0692,0.00010179,1.332e-05,0.0,0 STARLINK-4115,1 53032U 22076AY  24185.53813259  .00001332  00000-0  10179-3 0  9996,2 53032  53.2173 321.1598 0001267  93.0446 267.0692 15.08826859110744,6917.921,95.438,540.662,538.909,0.0
53032.0,STARLINK-4115,PAYLOAD,2024-07-03 16:05:40,15.08832939,0.000114,53.2167,320.5631,77.2838,282.8281,0.00012768,1.744e-05,0.0,0 STARLINK-4115,1 53032U 22076AY  24185.67060916  .00001744  00000-0  12768-3 0  9998,2 53032  53.2167 320.5631 0001140  77.2838 282.8281 15.08832939110292,6917.902,95.438,540.556,538.978,0.0
53032.0,STARLINK-4115,PAYLOAD,2024-07-04 01:37:59,15.08837687,0.0001082,53.2171,318.7792,115.603,244.5074,3.9894e-05,3.47e-06,0.0,0 STARLINK-4115,1 53032U 22076AY  24186.06804804  .00000347  00000-0  39894-4 0  9992,2 53032  53.2171 318.7792 0001082 115.6030 244.5074 15.08837687110829,6917.887,95.438,540.501,539.004,0.0
53032.0,STARLINK-4115,PAYLOAD,2024-07-04 14:21:04,15.08842832,0.0001162,53.2178,316.402,92.8322,267.2804,7.8761e-05,9.66e-06,0.0,0 STARLINK-4115,1 53032U 22076AY  24186.59796541  .00000966  00000-0  78761-4 0  9991,2 53032  53.2178 316.4020 0001162  92.8322 267.2804 15.08842832110432,6917.872,95.437,540.541,538.933,0.0
53032.0,STARLINK-4115,PAYLOAD,2024-07-04 15:56:27,15.08844285,0.0001122,53.2179,316.1057,88.3375,271.7746,0.00011225,1.499e-05,0.0,0 STARLINK-4115,1 53032U 22076AY  24186.66420394  .00001499  00000-0  11225-3 0  9992,2 53032  53.2179 316.1057 0001122  88.3375 271.7746 15.08844285110444,6917.867,95.437,540.508,538.956,0.0
53032.0,STARLINK-4115,PAYLOAD,2024-07-05 01:28:45,15.08849622,9.63e-05,53.2164,314.3178,72.0873,288.0224,0.00011497,1.543e-05,0.0,0 STARLINK-4115,1 53032U 22076AY  24187.06163821  .00001543  00000-0  11497-3 0  9997,2 53032  53.2164 314.3178 0000963  72.0873 288.0224 15.08849622110977,6917.851,95.437,540.382,539.05,0.0
53032.0,STARLINK-4115,PAYLOAD,2024-07-05 12:36:28,15.08834783,0.0001417,53.2189,312.2392,98.069,262.0463,9.0493e-05,1.152e-05,0.0,0 STARLINK-4115,1 53032U 22076AY  24187.52532995  .00001152  00000-0  90493-4 0  9990,2 53032  53.2189 312.2392 0001417  98.0690 262.0463 15.08834783111047,6917.896,95.438,540.742,538.781,0.0
53032.0,STARLINK-4115,PAYLOAD,2024-07-05 14:11:51,15.08838565,0.0001437,53.2187,311.9414,85.3844,274.7313,6.906e-05,8.11e-06,0.0,0 STARLINK-4115,1 53032U 22076AY  24187.59156869  .00000811  00000-0  69060-4 0  9996,2 53032  53.2187 311.9414 0001437  85.3844 274.7313 15.08838565110582,6917.885,95.438,540.744,538.756,0.0
